[{"OBJECT_NAME":"GOES 18","OBJECT_ID":"2022-021A","EPOCH":"2026-03-02T18:32:38.789088","MEAN_MOTION":1.00271247,"ECCENTRICITY":5.48e-5,"INCLINATION":0.0258,"RA_OF_ASC_NODE":75.1977,"ARG_OF_PERICENTER":314.4181,"MEAN_ANOMALY":272.075,"EPHEMERIS_TYPE":0,"CLASSIFICATION_TYPE":"U","NORAD_CAT_ID":51850,"ELEMENT_SET_NO":999,"REV_AT_EPOCH":552,"BSTAR":0,"MEAN_MOTION_DOT":8.0e-7,"MEAN_MOTION_DDOT":0},{"OBJECT_NAME":"GOES 19","OBJECT_ID":"2024-119A","EPOCH":"2026-03-02T12:02:42.915840","MEAN_MOTION":1.00272345,"ECCENTRICITY":9.22e-5,"INCLINATION":0.0013,"RA_OF_ASC_NODE":214.6235,"ARG_OF_PERICENTER":158.0579,"MEAN_ANOMALY":253.0696,"EPHEMERIS_TYPE":0,"CLASSIFICATION_TYPE":"U","NORAD_CAT_ID":60133,"ELEMENT_SET_NO":999,"REV_AT_EPOCH":589,"BSTAR":0,"MEAN_MOTION_DOT":-2.65e-6,"MEAN_MOTION_DDOT":0}]
